ONEWEB-0650             
1 55813U 23029T   24065.54788769  .00000063  00000+0  12529-3 0  9999
2 55813  87.9139 110.9189 0001704  87.7571 272.3757 13.19726704 48945
ONEWEB-0652             
1 55814U 23029U   24065.60360694  .00000205  00000+0  51865-3 0  9994
2 55814  87.8903  95.6189 0002098  97.6697 262.4671 13.14504371 49854
ONEWEB-0653             
1 55815U 23029V   24065.58775320 -.00000025  00000+0 -10195-3 0  9991
2 55815  87.8906  95.5993 0002345  93.2981 266.8417 13.14503875 49880
ONEWEB-0654             
1 55816U 23029W   24065.58299211 -.00000088  00000+0 -27174-3 0  9996
2 55816  87.8903  95.6132 0002442 103.5105 256.6297 13.14504382 49905
ONEWEB-0656             
1 55817U 23029X   24065.57637285  .00000054  00000+0  10020-3 0  9996
2 55817  87.9127  80.3092 0001970 112.9297 247.2044 13.20772320 51110
ONEWEB-0657             
1 55818U 23029Y   24065.54315124  .00000061  00000+0  12061-3 0  9994
2 55818  87.9137 110.9251 0001641 125.8260 234.3026 13.19726409 48957
ONEWEB-0658             
1 55819U 23029Z   24065.53842680  .00000044  00000+0  78674-4 0  9990
2 55819  87.9135 110.8625 0001626  78.1773 281.9542 13.19725452 48961
ONEWEB-0660             
1 55820U 23029AA  24065.56079418 -.00000161  00000+0 -47001-3 0  9997
2 55820  87.8904  95.5933 0002271  80.5713 279.5674 13.14503728 49881
